FENGYUN 1C DEB          
1 31367U 99025BRX 16365.79563947  .00000292  00000-0  10310-3 0  9997
2 31367  98.7079 113.0431 0112719  13.8207 136.8897 14.38696445514100
FENGYUN 1C DEB          
1 31368U 99025BRY 16364.05979374  .00000250  00000-0  14806-3 0  9999
2 31368  98.9384  91.9618 0051755 236.5375 247.1032 14.15889792181117
FENGYUN 1C DEB          
1 31369U 99025BRZ 16363.94330041  .00000093  00000-0  67143-4 0  9997
2 31369  98.7314  42.5392 0056809 353.5109 127.2515 14.16696850179922
FENGYUN 1C DEB          
1 31370U 99025BSA 16365.55709706  .00000178  00000-0  13306-3 0  9991
2 31370  98.9766  31.8121 0036188 129.3738  30.3553 14.06570140503180
FENGYUN 1C DEB          
1 31371U 99025BSB 16364.64686299  .00000301  00000-0  23411-3 0  9998
2 31371  99.0944  64.4427 0069971 310.3047 207.2424 13.99171149500189
FENGYUN 1C DEB          
1 31372U 99025BSC 16365.39237495  .00000462  00000-0  28826-3 0  9995
2 31372  99.3683 154.8661 0043167 217.4339 142.3821 14.09750091496654
FENGYUN 1C DEB          
1 31374U 99025BSE 16363.41180895  .00001163  00000-0  62697-3 0  9992
2 31374  99.6575 207.8707 0208443  13.0215 347.6219 14.04423992499164
FENGYUN 1C DEB          
1 31376U 99025BSG 16364.79535274  .00000674  00000-0  24458-3 0  9990
2 31376  98.8116 109.2683 0074832 243.0776 271.0001 14.35117019510859
FENGYUN 1C DEB          
1 31378U 99025BSJ 16364.90958679  .00000117  00000-0  15773-3 0  9995
2 31378 100.7655 135.3747 0176949  96.2160 265.9173 13.75494356492249
FENGYUN 1C DEB          
1 31379U 99025BSK 16365.19133986  .00005881  00000-0  54209-3 0  9994
2 31379  99.4947 142.6594 0095539 100.1592 261.0414 14.91756848517540
FENGYUN 1C DEB          
1 31380U 99025BSL 16363.53289497  .00002553  00000-0  44991-3 0  9991
2 31380  96.5572 276.2025 0104882  89.8230 271.4995 14.64560209188650
FENGYUN 1C DEB          
1 31381U 99025BSM 16364.46311601  .00000211  00000-0  80997-4 0  9994
2 31381  98.6742  80.7562 0219659 303.5539  54.4836 14.28739009506400
FENGYUN 1C DEB          
1 31382U 99025BSN 16363.90995637  .00003569  00000-0  68359-3 0  9996
2 31382  96.9200  53.3542 0051083 169.6491 190.5779 14.63443945171831
FENGYUN 1C DEB          
1 31383U 99025BSP 16365.46885259  .00000127  00000-0  11294-3 0  9991
2 31383  99.2521 351.9691 0118447 304.7098 208.1828 13.99287745495853
FENGYUN 1C DEB          
1 31384U 99025BSQ 16364.32007928  .00000063  00000-0  51137-4 0  9995
2 31384  98.4952 291.0845 0504115 199.0549 322.0813 13.67440126483491
FENGYUN 1C DEB          
1 31385U 99025BSR 16363.88020001  .00000088  00000-0  39447-4 0  9990
2 31385  99.0165 229.8510 0140336  16.6011  39.7630 14.40908704514804
FENGYUN 1C DEB          
1 31386U 99025BSS 16365.42245748  .00001271  00000-0  11675-2 0  9996
2 31386  98.4638 324.6592 0220409 128.8327 354.5564 13.73983189489702
FENGYUN 1C DEB          
1 31387U 99025BST 16365.28496412  .00000108  00000-0  66667-4 0  9998
2 31387  99.0749 110.3627 0249619 328.1591  50.9193 14.10397480503284
FENGYUN 1C DEB          
1 31388U 99025BSU 16364.56428551  .00000079  00000-0  73756-4 0  9992
2 31388  98.9198  33.9123 0048098  31.1121 123.0288 14.06079350506020
FENGYUN 1C DEB          
1 31389U 99025BSV 16365.59186348  .00001324  00000-0  73350-3 0  9995
2 31389  99.0985  33.8114 0062222 163.1198 347.9430 14.12092749501026
FENGYUN 1C DEB          
1 31410U 99025BSW 16364.07802176  .00000314  00000-0  12206-3 0  9997
2 31410  98.6764  87.6965 0132413 226.6252 255.5996 14.32116063508417
FENGYUN 1C DEB          
1 31411U 99025BSX 16364.79787130  .00000210  00000-0  10753-3 0  9999
2 31411  98.9392 351.8898 0107870 343.0932 137.9154 14.22959657479326
FENGYUN 1C DEB          
1 31412U 99025BSY 16362.81781199  .00000690  00000-0  50239-3 0  9995
2 31412  98.5639 116.7940 0093370 147.6835 213.0096 13.97167021492044
FENGYUN 1C DEB          
1 31414U 99025BTA 16357.25451814  .00001939  00000-0  57136-3 0  9997
2 31414  98.7210   0.8598 0075295  31.7320 328.8375 14.43173777508223
FENGYUN 1C DEB          
1 31415U 99025BTB 16363.15053586  .00000271  00000-0  15377-3 0  9997
2 31415  99.6571 325.8002 0073493 245.2504 114.1008 14.18036260163603
FENGYUN 1C DEB          
1 31416U 99025BTC 16365.79836900  .00000148  00000-0  62004-4 0  9992
2 31416  99.0977 203.5749 0145064 112.5227 312.7897 14.35100866506404
FENGYUN 1C DEB          
1 31417U 99025BTD 16365.55670627  .00001820  00000-0  47262-3 0  9995
2 31417  99.0675 210.1258 0047496 212.1099 147.7198 14.50411002506373
FENGYUN 1C DEB          
1 31418U 99025BTE 16363.51694493  .00001036  00000-0  55344-3 0  9996
2 31418  99.1402  92.7143 0064330 194.2501 165.6858 14.14503213496527
FENGYUN 1C DEB          
1 31419U 99025BTF 16364.00722548  .00000863  00000-0  33046-3 0  9997
2 31419  98.7365  75.4352 0080305 191.2705 168.6681 14.31408441507159
FENGYUN 1C DEB          
1 31420U 99025BTG 16364.71212630  .00000157  00000-0  64102-4 0  9997
2 31420  97.5669 272.2180 0152968 200.1928 189.5368 14.31943300507368
FENGYUN 1C DEB          
1 31422U 99025BTJ 16365.32432964  .00000245  00000-0  17386-3 0  9990
2 31422  98.9597  33.1446 0036805 134.3120 290.3833 14.06493152499025
FENGYUN 1C DEB          
1 31423U 99025BTK 16364.32052135  .00000059  00000-0  47065-4 0  9999
2 31423  98.6620  39.5125 0036687 328.7793  31.1205 14.21193274505556
FENGYUN 1C DEB          
1 31424U 99025BTL 16365.46381293 -.00000010  00000-0  17299-4 0  9990
2 31424  98.4225 183.9091 0096070   8.4491  21.0016 14.06190080498803
FENGYUN 1C DEB          
1 31426U 99025BTN 16364.35398329  .00000344  00000-0  23430-3 0  9999
2 31426  98.5931  40.9180 0357655  69.6664 354.6753 13.78208558484289
FENGYUN 1C DEB          
1 31427U 99025BTP 16364.08284001  .00000808  00000-0  35153-3 0  9991
2 31427  98.8581  35.5202 0053287 276.3446 148.3838 14.26176446500777
FENGYUN 1C DEB          
1 31428U 99025BTQ 16363.87425132  .00000336  00000-0  14513-3 0  9993
2 31428  99.0510 151.2300 0076469 323.1086 197.5323 14.29790118507432
FENGYUN 1C DEB          
1 31429U 99025BTR 16363.87291815  .00000422  00000-0  24964-3 0  9990
2 31429  99.0095  26.1533 0017399  15.9356 109.5812 14.13202103496700
FENGYUN 1C DEB          
1 31430U 99025BTS 16365.51608353  .00000423  00000-0  23781-3 0  9991
2 31430  99.0220  14.5690 0031138  23.6854 128.1658 14.15705510498421
FENGYUN 1C DEB          
1 31431U 99025BTT 16363.20660345  .00000289  00000-0  23431-3 0  9997
2 31431  98.5565  88.5081 0150912 192.4530 167.2886 13.92068744489164
FENGYUN 1C DEB          
1 31432U 99025BTU 16365.36731816  .00004893  00000-0  17171-3 0  9998
2 31432  99.0494 150.4909 0102362  14.6970 345.7200 15.25189168522814
FENGYUN 1C DEB          
1 31433U 99025BTV 16364.22019743  .00000797  00000-0  50109-3 0  9998
2 31433  98.4195  85.9210 0128920   3.5628  16.6321 14.02976428495339
FENGYUN 1C DEB          
1 31434U 99025BTW 16364.97802697  .00001809  00000-0  49929-3 0  9992
2 31434  99.0575 191.5447 0052542 239.8547 278.5653 14.47354368505550
FENGYUN 1C DEB          
1 31435U 99025BTX 16364.59697335  .00000062  00000-0  28017-4 0  9998
2 31435  98.9535 269.8558 0159518 267.2229  91.0696 14.48486618511052
FENGYUN 1C DEB          
1 31436U 99025BTY 16365.70679834  .00001186  00000-0  47457-3 0  9993
2 31436  98.8873  69.4145 0138787 157.8799 327.5454 14.25146944499698
FENGYUN 1C DEB          
1 31437U 99025BTZ 16364.89736473  .00000944  00000-0  47359-3 0  9998
2 31437  98.9319 338.4001 0019712 320.4304  39.5432 14.18941299499516
FENGYUN 1C DEB          
1 31439U 99025BUB 16364.95796449  .00000233  00000-0  20484-3 0  9997
2 31439  99.2008  45.2301 0145391  66.6691  52.4872 13.90262723177482
FENGYUN 1C DEB          
1 31440U 99025BUC 16364.05260728  .00000829  00000-0  42532-3 0  9995
2 31440  98.9364  37.8028 0047967  44.5098 315.9914 14.17565996502118
FENGYUN 1C DEB          
1 31441U 99025BUD 16364.92494762  .00000823  00000-0  42298-3 0  9992
2 31441  99.3302  39.7857 0277936 155.9117 205.5339 14.00017963178669
FENGYUN 1C DEB          
1 31442U 99025BUE 16364.45378384  .00000170  00000-0  83154-4 0  9994
2 31442  98.6809  83.1811 0085533 254.1704 105.0035 14.28240318506339
FENGYUN 1C DEB          
1 31443U 99025BUF 16365.78852782  .00000461  00000-0  15375-3 0  9993
2 31443  99.2886 204.4783 0253992 189.0142 170.6431 14.26339963505437
FENGYUN 1C DEB          
1 31444U 99025BUG 16364.08398989  .00000946  00000-0  34585-3 0  9992
2 31444  98.8813 111.7295 0109518  17.7818 342.7150 14.32128611504298
FENGYUN 1C DEB          
1 31445U 99025BUH 16362.91931169  .00001950  00000-0  47454-3 0  9991
2 31445  98.9038 160.7495 0063895 129.3905  23.6002 14.52791065508880
FENGYUN 1C DEB          
1 31446U 99025BUJ 16364.03693788  .00001675  00000-0  74215-3 0  9998
2 31446  98.7437 305.2352 0081354 353.6169   6.3966 14.22709097114289
FENGYUN 1C DEB          
1 31447U 99025BUK 16364.03757928  .00000339  00000-0  13468-3 0  9995
2 31447  98.8073 300.2385 0240489  21.7903 339.3298 14.20655357183777
FENGYUN 1C DEB          
1 31448U 99025BUL 16363.91861852  .00000335  00000-0  17558-3 0  9994
2 31448  98.7912  36.8052 0063602 319.7588  39.8889 14.19836754178199
FENGYUN 1C DEB          
1 31449U 99025BUM 16363.81445755  .00000075  00000-0  41592-4 0  9991
2 31449  98.8259 348.4237 0151759 141.5990 338.3731 14.30585740508437
FENGYUN 1C DEB          
1 31450U 99025BUN 16364.50177412  .00003286  00000-0  19730-3 0  9997
2 31450  98.5165  97.7131 0351509 118.4001 245.3110 14.72157799508882
FENGYUN 1C DEB          
1 31451U 99025BUP 16365.51388640  .00000083  00000-0  71984-4 0  9999
2 31451  99.0876   9.4155 0033254  69.5570  85.3201 14.10264428501803
FENGYUN 1C DEB          
1 31452U 99025BUQ 16365.66240632  .00000136  00000-0  97832-4 0  9993
2 31452  98.8304  45.5862 0043333  80.3889  46.9542 14.11517939501817
FENGYUN 1C DEB          
1 31455U 99025BUT 16364.38252826  .00000131  00000-0  81678-4 0  9998
2 31455  98.8645  64.7720 0223850 330.4126  28.4530 14.08700429500377
